GEO-KOMPSAT-2B          
1 45246U 20013B   23275.88122966 -.00000353  00000+0  00000+0 0  9998
2 45246   0.0408 334.7191 0002099 263.6321 218.4968  1.00274207 13360
BEIDOU-3 G2             
1 45344U 20017A   23276.52785976 -.00000149  00000+0  00000+0 0  9992
2 45344   2.0671  17.7158 0003310 181.6856  82.6374  1.00272630 13363
AEHF-6 (USA 298)        
1 45465U 20022B   23275.88378182 -.00000311  00000+0  00000+0 0  9998
2 45465   4.8424 299.6103 0045978   4.9247 162.6671  1.00275580 13109
BEIDOU-3 G3             
1 45807U 20040A   23276.04355128 -.00000363  00000+0  00000+0 0  9999
2 45807   0.5960 350.0063 0007573 317.6178 190.1107  1.00274436 12175
APSTAR 6D               
1 45863U 20045A   23275.90708615 -.00000327  00000+0  00000+0 0  9993
2 45863   0.0442  89.2423 0002004  89.0774 293.6001  1.00269433 11952
KOREASAT 116            
1 45920U 20048A   23276.02771208 -.00000371  00000+0  00000+0 0  9991
2 45920   0.0329 275.6684 0001458 294.2602 287.7419  1.00271228 11729
EXPRESS 103             
1 45985U 20053A   23276.09541566 -.00000289  00000+0  00000+0 0  9995
2 45985   0.0156 230.3737 0000234  10.1209 261.9148  1.00271317 11737
EXPRESS 80              
1 45986U 20053B   23275.74666007 -.00000146  00000+0  00000+0 0  9997
2 45986   0.0301 255.4807 0000349 216.6635 247.8757  1.00272125 11725
BSAT-4B                 
1 46112U 20056A   23275.61334700 -.00000359  00000+0  00000+0 0  9996
2 46112   0.0642 118.5444 0004273  48.4095 174.7667  1.00270279 11470
MEV-2                   
1 46113U 20056B   23275.35949986 -.00000020  00000+0  00000+0 0  9991
2 46113   0.0171 231.9913 0001112 352.1871 275.0914  1.00273089 70719
GALAXY 30 (G-30)        
1 46114U 20056C   23276.53851623  .00000028  00000+0  00000+0 0  9990
2 46114   0.0156 172.2320 0002492  31.8526 236.7592  1.00270437 11504
GAOFEN 13-01            
1 46610U 20071A   23275.87452527 -.00000372  00000+0  00000+0 0  9997
2 46610   0.0679 302.6132 0013397  67.5291  74.0704  1.00272551 11019
TIANTONG-1 2            
1 46916U 20082A   23275.87795447 -.00000367  00000+0  00000+0 0  9993
2 46916   2.9838 293.2173 0002415 293.4146 225.7008  1.00271080 10741
LUCAS (JDRS-1)          
1 47202U 20089A   23276.53513388 -.00000245  00000+0  00000+0 0  9990
2 47202   0.0414 262.7326 0001838 292.4568 100.2156  1.00273531 10491
SXM-7                   
1 47240U 20096A   23275.55765035 -.00000214  00000+0  00000+0 0  9995
2 47240   0.0416 352.8246 0000944 139.4961 354.2238  1.00272502 10401
CMS-01                  
1 47256U 20099A   23276.09271796 -.00000174  00000+0  00000+0 0  9996
2 47256   0.0795  92.0745 0007360 160.6370 235.2275  1.00272066 10284
TURKSAT 5A              
1 47306U 21001A   23276.29979899  .00000145  00000+0  00000+0 0  9994
2 47306   0.0213 114.9994 0000153 146.7891 248.8114  1.00271406 10088
TIANTONG-1 3            
1 47321U 21003A   23276.53082793 -.00000165  00000+0  00000+0 0  9991
2 47321   3.4114 309.4618 0004140 263.8850  71.2421  1.00273395 10068
TJS-6                   
1 47613U 21010A   23275.76229913  .00000033  00000+0  00000+0 0  9997
2 47613   0.2961 278.8128 0001972 282.6828 262.5419  1.00271932  9904
SBIRS GEO-5 (USA 315)   
1 48618U 21042A   23275.86537902  .00000104  00000+0  00000+0 0  9998
2 48618   6.5647 325.4667 0002391 235.5434 142.7356  1.00272799  8824
FENGYUN 4B              
1 48808U 21047A   23275.88245968 -.00000331  00000+0  00000+0 0  9997
2 48808   0.2254 282.1473 0002304 135.5400  44.5834  1.00270956  8654
SXM-8                   
1 48838U 21049A   23275.55765035 -.00000214  00000+0  00000+0 0  9998
2 48838   0.0211 241.8298 0003149 133.5290 111.1994  1.00273113  8698
TIANLIAN 1-05           
1 49011U 21063A   23276.10257709  .00000099  00000+0  00000+0 0  9994
2 49011   0.9707 279.2780 0003958 270.7131 235.2956  1.00271950  8163
STAR ONE D2             
1 49055U 21069A   23275.99064045 -.00000274  00000+0  00000+0 0  9999
2 49055   0.0085 184.9101 0002669 358.6876 114.4944  1.00272427  7995
EUTELSAT QUANTUM        
1 49056U 21069B   23276.51564780  .00000117  00000+0  00000+0 0  9995
2 49056   0.0179  17.3973 0002397 198.5449  29.3679  1.00274181  8013
CHINASAT 2E (ZX 2E)     
1 49062U 21071A   23276.09576375 -.00000301  00000+0  00000+0 0  9997
2 49062   0.0443  33.7594 0002569 258.1767 212.1449  1.00271971  8136
TJS-7                   
1 49115U 21077A   23276.55383212 -.00000133  00000+0  00000+0 0  9992
2 49115   0.4876  94.2562 0002850 250.4798 127.1905  1.00272719  7916
CHINASAT 9B             
1 49125U 21080A   23275.86491567 -.00000322  00000+0  00000+0 0  9993
2 49125   0.0115 143.4198 0003798  47.7880 232.8874  1.00273106  7721
SHIJIAN-21 (SJ-21)      
1 49330U 21094A   23276.51599590  .00000081  00000+0  00000+0 0  9995
2 49330   9.3279  47.0351 0079258  27.7608 172.6685  1.00384375  7342
SES-17                  
1 49332U 21095A   23275.56130528 -.00000281  00000+0  00000+0 0  9997
2 49332   0.0152 170.1581 0001189  32.6770 303.1564  1.00268251  7934
SYRACUSE 4A             
1 49333U 21095B   23275.79861591  .00000126  00000+0  00000+0 0  9991
2 49333   0.0130 207.8934 0001510 339.4121 156.9445  1.00270327  8061
QZS-1R                  
1 49336U 21096A   23276.38781160 -.00000258  00000+0  00000+0 0  9991
2 49336  35.4134  94.4673 0745191 269.8225 281.9116  1.00282949  7090
CHINASAT 1D (ZX 1D)     
1 49505U 21114A   23275.83487829 -.00000346  00000+0  00000+0 0  9992
2 49505   0.2735 271.0285 0001924 307.2868 223.7026  1.00271905  6921
STPSAT-6                
1 49817U 21118A   23276.54609134 -.00000055  00000+0  00000+0 0  9993
2 49817   0.0175 193.5915 0000876  39.1840 224.1734  1.00271817  6672
LDPE-1                  
1 49818U 21118B   23276.53104341 -.00000206  00000+0  00000+0 0  9991
2 49818   1.5629  91.3938 0004831 195.5853 354.3882  1.00638214  6712
EXPRESS AMU-7           
1 50001U 21123A   23275.56659037 -.00000252  00000+0  00000+0 0  9993
2 50001   0.0237 249.4401 0000445 249.4786 221.1008  1.00272557  6624
EXPRESS AMU-3           
1 50002U 21123B   23275.68295991 -.00000331  00000+0  00000+0 0  9990
2 50002   0.0217 237.6596 0000312 186.7810 295.5789  1.00271950  6606
TIANLIAN 2-02           
1 50005U 21124A   23275.83243894 -.00000024  00000+0  00000+0 0  9995
2 50005   1.3445 276.8515 0001601 281.2882 283.8052  1.00271722  6705
TURKSAT 5B              
1 50212U 21126A   23275.94126272  .00000137  00000+0  00000+0 0  9993
2 50212   0.0711 346.4697 0002362 307.0564  98.7336  1.00271871  6388
INMARSAT 6-F1           
1 50319U 21128A   23275.81760192 -.00000181  00000+0  00000+0 0  9994
2 50319   0.0147 181.2247 0001268 105.0119 103.1243  1.00269850  6349
SHIYAN 12 01 (SY-12 01) 
1 50321U 21129A   23275.86348715 -.00000152  00000+0  00000+0 0  9994
2 50321   1.1119  96.1314 0002791 156.5908 154.8742  1.00073033  6580
SHIYAN 12 02 (SY-12 02) 
1 50322U 21129B   23275.81606469 -.00000133  00000+0  00000+0 0  9992
2 50322   1.1112  96.1511 0003297 140.1423 143.2603  1.00457507  6586
TJS-9                   
1 50574U 21135A   23275.88256699 -.00000307  00000+0  00000+0 0  9994
2 50574   0.0928  96.9383 0003428 102.8474 266.5175  1.00273445  6535
USA 324                 
1 51280U 22006A   23255.36624483 -.00000053  00000+0  00000+0 0  9996
2 51280   1.1011  92.3395 0000790 170.2202  24.8459  1.00397066  6014
USA 325                 
1 51281U 22006B   23255.37847407  .00000082  00000+0  00000+0 0  9992
2 51281   0.0899  86.8893 0000767 164.1134  61.2593  1.00346896  6017
GOES 18                 
1 51850U 22021A   23276.53088338  .00000088  00000+0  00000+0 0  9998
2 51850   0.0415  22.4957 0000406 182.4552 221.1497  1.00270800  5905
CHINASAT 6D             
1 52255U 22038A   23275.62206370 -.00000363  00000+0  00000+0 0  9990
2 52255   0.0300 212.4419 0002301  18.5541 128.9835  1.00268568  5532
NILESAT 301             
1 52817U 22061A   23276.36135671 -.00000067  00000+0  00000+0 0  9998
2 52817   0.0613  12.0854 0002332 192.4142 290.3926  1.00271533  4836
CMS-02 (GSAT 24)        
1 52903U 22067A   23276.53144278 -.00000173  00000+0  00000+0 0  9990
2 52903   0.0145 214.5723 0004967 261.1068 170.6167  1.00270660  4717
MEASAT 3D               
1 52904U 22067B   23275.84205624 -.00000251  00000+0  00000+0 0  9994
2 52904   0.0450  13.9553 0001919 237.5100 154.4843  1.00270811  4738
SES-22                  
1 52933U 22071A   23276.53173611  .00000079  00000+0  00000+0 0  9995
2 52933   0.0166 177.8634 0001220  33.6519 216.8558  1.00271332  4665
WFOV (USA 332)          
1 52940U 22073A   23275.95666573 -.00000371  00000+0  00000+0 0  9990
2 52940   1.1537  91.8014 0004545  88.4451 294.8441  1.00273032  4453
TIANLIAN 2-03           
1 53100U 22078A   23275.71664187  .00000061  00000+0  00000+0 0  9992
2 53100   1.8974 280.4712 0001712 262.9143  96.3787  1.00269530  4642
SBIRS GEO-6 (USA 336)   
1 53355U 22092A   23276.57497494  .00000105  00000+0  00000+0 0  9999
2 53355   5.1119 310.9257 0011738 189.1348 293.9456  1.00272724  4323
EUTELSAT KONNECT VHTS   
1 53765U 22110A   23276.16993866  .00000008  00000+0  00000+0 0  9996
2 53765   0.0534  94.1642 0002998  93.6365 247.6843  1.00270385  3885
CHINASAT 1E (ZX 1E)     
1 53813U 22112A   23275.80784964 -.00000159  00000+0  00000+0 0  9997
2 53813   0.5422 277.4383 0002685 284.1960 181.8369  1.00270164  3943
SES-20                  
1 53960U 22123A   23275.62578903 -.00000110  00000+0  00000+0 0  9993
2 53960   0.0207 154.7935 0001511 319.1197  19.3594  1.00271111  3634
SES-21                  
1 53961U 22123B   23275.82672956  .00000060  00000+0  00000+0 0  9992
2 53961   0.0138 119.9097 0001039  63.1778 354.8480  1.00270242  3642
GALAXY 33 (G-33)        
1 54026U 22128A   23276.23786538  .00000070  00000+0  00000+0 0  9999
2 54026   0.0139 213.6571 0001888 341.4170 129.2326  1.00271640  3843
